{
    "links": {
        "self": "http://www.neowsapp.com/rest/v1/neo/3607958?api_key=iIulBulltgU6a56xZRHN4H3l9WmuAYTsLGpBGhQ2"
    },
    "id": "3607958",
    "neo_reference_id": "3607958",
    "name": "(2012 QW17)",
    "designation": "2012 QW17",
    "nasa_jpl_url": "http://ssd.jpl.nasa.gov/sbdb.cgi?sstr=3607958",
    "absolute_magnitude_h": 23.6,
    "estimated_diameter": {
        "kilometers": {
            "estimated_diameter_min": 0.0506471459,
            "estimated_diameter_max": 0.1132504611
        },
        "meters": {
            "estimated_diameter_min": 50.6471458835,
            "estimated_diameter_max": 113.2504610618
        },
        "miles": {
            "estimated_diameter_min": 0.0314706677,
            "estimated_diameter_max": 0.0703705522
        },
        "feet": {
            "estimated_diameter_min": 166.1651821003,
            "estimated_diameter_max": 371.5566426699
        }
    },
    "is_potentially_hazardous_asteroid": false,
    "close_approach_data": [
        {
            "close_approach_date": "2012-08-20",
            "close_approach_date_full": "2012-Aug-20 08:31",
            "epoch_date_close_approach": 1345451460000,
            "relative_velocity": {
                "kilometers_per_second": "16.9077780783",
                "kilometers_per_hour": "60868.0010819657",
                "miles_per_hour": "37821.0087834025"
            },
            "miss_distance": {
                "astronomical": "0.0369950467",
                "lunar": "14.3910731663",
                "kilometers": "5534380.186870529",
                "miles": "3438904.3840061402"
            },
            "orbiting_body": "Earth"
        },
        {
            "close_approach_date": "2096-09-04",
            "close_approach_date_full": "2096-Sep-04 23:21",
            "epoch_date_close_approach": 3997639260000,
            "relative_velocity": {
                "kilometers_per_second": "23.5021637565",
                "kilometers_per_hour": "84607.7895233748",
                "miles_per_hour": "52571.9901068992"
            },
            "miss_distance": {
                "astronomical": "0.2555575479",
                "lunar": "99.4118861331",
                "kilometers": "38230864.828262973",
                "miles": "23755557.8444281074"
            },
            "orbiting_body": "Earth"
        },
        {
            "close_approach_date": "2144-03-09",
            "close_approach_date_full": "2144-Mar-09 15:55",
            "epoch_date_close_approach": 5496825300000,
            "relative_velocity": {
                "kilometers_per_second": "4.6115678068",
                "kilometers_per_hour": "16601.6441045264",
                "miles_per_hour": "10315.6160270598"
            },
            "miss_distance": {
                "astronomical": "1.4719216275",
                "lunar": "572.5775130975",
                "kilometers": "220196340.280933425",
                "miles": "136823661.253094265"
            },
            "orbiting_body": "Juptr"
        }
    ],
    "orbital_data": {
        "orbit_id": "5",
        "orbit_determination_date": "2017-04-06 08:49:10",
        "first_observation_date": "2012-08-25",
        "last_observation_date": "2012-09-05",
        "data_arc_in_days": 11,
        "observations_used": 52,
        "orbit_uncertainty": "8",
        "minimum_orbit_intersection": ".0316066",
        "jupiter_tisserand_invariant": "3.148",
        "epoch_osculation": "2456166.5",
        "eccentricity": ".6524235263050222",
        "semi_major_axis": "2.435607585246957",
        "inclination": "12.72944882867695",
        "ascending_node_longitude": "153.089343786248",
        "orbital_period": "1388.383372148822",
        "perihelion_distance": ".8465598957848773",
        "perihelion_argument": "116.5810328833501",
        "aphelion_distance": "4.024655274709037",
        "perihelion_time": "2456119.908009517130",
        "mean_anomaly": "12.08104109448761",
        "mean_motion": ".2592943759062907",
        "equinox": "J2000",
        "orbit_class": {
            "orbit_class_type": "APO",
            "orbit_class_description": "Near-Earth asteroid orbits which cross the Earth’s orbit similar to that of 1862 Apollo",
            "orbit_class_range": "a (semi-major axis) > 1.0 AU; q (perihelion) < 1.017 AU"
        }
    },
    "is_sentry_object": false
}